CCSDS_OMM_VERS,COMMENT,CREATION_DATE,ORIGINATOR,OBJECT_NAME,OBJECT_ID,CENTER_NAME,REF_FRAME,TIME_SYSTEM,MEAN_ELEMENT_THEORY,EPOCH,MEAN_MOTION,ECCENTRICITY,INCLINATION,RA_OF_ASC_NODE,ARG_OF_PERICENTER,MEAN_ANOMALY,EPHEMERIS_TYPE,CLASSIFICATION_TYPE,NORAD_CAT_ID,ELEMENT_SET_NO,REV_AT_EPOCH,BSTAR,MEAN_MOTION_DOT,MEAN_MOTION_DDOT,SEMIMAJOR_AXIS,PERIOD,APOAPSIS,PERIAPSIS,OBJECT_TYPE,RCS_SIZE,COUNTRY_CODE,LAUNCH_DATE,SITE,DECAY_DATE,FILE,GP_ID,TLE_LINE0,TLE_LINE1,TLE_LINE2
2,GENERATED VIA SPACE-TRACK.ORG API,2007-01-29T15:25:04,18 SPCS,JCSAT 2,1990-001B,EARTH,TEME,UTC,SGP4,2007-01-29T13:01:53.223167,0.98538911,0.0060898,5.0732,94.3099,126.1812,234.2739,0,U,20402,999,4558,0.0001,-1.95e-06,0,42657.651,1461.351,36539.293,36019.74,PAYLOAD,MEDIUM,JPN,1990-01-01,AFETR,,358329,60296302,0 JCSAT 2,1 20402U 90001B   07029.54297712 -.00000195  00000-0  10000-3 0  9993,2 20402 005.0732 094.3099 0060898 126.1812 234.2739 00.98538911 45589
2,GENERATED VIA SPACE-TRACK.ORG API,2007-02-02T16:01:45,18 SPCS,JCSAT 2,1990-001B,EARTH,TEME,UTC,SGP4,2007-02-02T14:27:19.595231,0.98536773,0.0061708,5.0825,94.2283,126.3364,234.2184,0,U,20402,999,4562,0.0001,-7.6e-07,0,42658.269,1461.383,36543.369,36016.898,PAYLOAD,MEDIUM,JPN,1990-01-01,AFETR,,360159,60342953,0 JCSAT 2,1 20402U 90001B   07033.60231013 -.00000076  00000-0  10000-3 0  9995,2 20402 005.0825 094.2283 0061708 126.3364 234.2184 00.98536773 45624
2,GENERATED VIA SPACE-TRACK.ORG API,2007-02-03T15:58:26,18 SPCS,JCSAT 2,1990-001B,EARTH,TEME,UTC,SGP4,2007-02-03T14:48:47.333663,0.98536223,0.0060815,5.0861,94.2051,126.3878,234.2031,0,U,20402,999,4563,0.0001,-4.2e-07,0,42658.427,1461.391,36539.719,36020.865,PAYLOAD,MEDIUM,JPN,1990-01-01,AFETR,,360568,60354475,0 JCSAT 2,1 20402U 90001B   07034.61721451 -.00000042  00000-0  10000-3 0  9990,2 20402 005.0861 094.2051 0060815 126.3878 234.2031 00.98536223 45637
2,GENERATED VIA SPACE-TRACK.ORG API,2007-02-06T10:10:48,18 SPCS,JCSAT 2,1990-001B,EARTH,TEME,UTC,SGP4,2007-02-04T15:10:11.094240,0.98535848,0.0060758,5.0888,94.1839,126.4652,234.1523,0,U,20402,999,4564,0.0001,-1.2e-07,0,42658.535,1461.397,36539.585,36021.216,PAYLOAD,MEDIUM,JPN,1990-01-01,AFETR,,361490,60386040,0 JCSAT 2,1 20402U 90001B   07035.63207285 -.00000012 +00000-0 +10000-3 0  9994,2 20402 005.0888 094.1839 0060758 126.4652 234.1523 00.98535848045644
2,GENERATED VIA SPACE-TRACK.ORG API,2007-02-05T14:10:41,18 SPCS,JCSAT 2,1990-001B,EARTH,TEME,UTC,SGP4,2007-02-04T15:10:11.145215,0.98535856,0.0060803,5.0888,94.1836,126.4426,234.1764,0,U,20402,999,4564,0.0001,-1.2e-07,0,42658.533,1461.396,36539.775,36021.021,PAYLOAD,MEDIUM,JPN,1990-01-01,AFETR,,361168,60374114,0 JCSAT 2,1 20402U 90001B   07035.63207344 -.00000012 +00000-0 +10000-3 0  9990,2 20402 005.0888 094.1836 0060803 126.4426 234.1764 00.98535856045647
2,GENERATED VIA SPACE-TRACK.ORG API,2007-02-06T00:05:55,18 SPCS,JCSAT 2,1990-001B,EARTH,TEME,UTC,SGP4,2007-02-05T15:31:32.473631,0.98535593,0.0060756,5.0915,94.1624,126.5014,234.1343,0,U,20402,999,4565,0.0001,1.5e-07,0,42658.609,1461.4,36539.651,36021.297,PAYLOAD,MEDIUM,JPN,1990-01-01,AFETR,,361343,60379925,0 JCSAT 2,1 20402U 90001B   07036.64690363  .00000015  00000-0  10000-3 0  9991,2 20402 005.0915 094.1624 0060756 126.5014 234.1343 00.98535593 45656
2,GENERATED VIA SPACE-TRACK.ORG API,2007-02-12T15:57:37,18 SPCS,JCSAT 2,1990-001B,EARTH,TEME,UTC,SGP4,2007-02-11T17:39:07.759007,0.98536259,0.0060596,5.1069,94.0359,126.8938,233.7022,0,U,20402,999,4571,0.0001,2.4e-07,0,42658.417,1461.39,36538.775,36021.789,PAYLOAD,MEDIUM,JPN,1990-01-01,AFETR,,363847,60462466,0 JCSAT 2,1 20402U 90001B   07042.73550647  .00000024  00000-0  10000-3 0  9998,2 20402 005.1069 094.0359 0060596 126.8938 233.7022 00.98536259 45717
2,GENERATED VIA SPACE-TRACK.ORG API,2007-02-14T09:10:49,18 SPCS,JCSAT 2,1990-001B,EARTH,TEME,UTC,SGP4,2007-02-12T18:00:25.551935,0.98536682,0.0060634,5.1095,94.0135,126.9146,233.6881,0,U,20402,999,4572,0.0001,0.0,0,42658.295,1461.384,36538.814,36021.505,PAYLOAD,MEDIUM,JPN,1990-01-01,AFETR,,364567,60482525,0 JCSAT 2,1 20402U 90001B   07043.75029574 +.00000000 +00000-0 +10000-3 0  9995,2 20402 005.1095 094.0135 0060634 126.9146 233.6881 00.98536682045726
2,GENERATED VIA SPACE-TRACK.ORG API,2007-02-15T05:11:14,18 SPCS,JCSAT 2,1990-001B,EARTH,TEME,UTC,SGP4,2007-02-13T18:21:43.908191,0.98537268,0.0060697,5.1133,93.9934,127.2038,233.4177,0,U,20402,999,4573,0.0001,-2.7e-07,0,42658.126,1461.376,36538.913,36021.069,PAYLOAD,MEDIUM,JPN,1990-01-01,AFETR,,364720,60487093,0 JCSAT 2,1 20402U 90001B   07044.76509153 -.00000027  00000-0  10000-3 0  9993,2 20402 005.1133 093.9934 0060697 127.2038 233.4177 00.98537268 45735
2,GENERATED VIA SPACE-TRACK.ORG API,2007-02-16T08:10:27,18 SPCS,JCSAT 2,1990-001B,EARTH,TEME,UTC,SGP4,2007-02-14T18:43:01.923168,0.98537736,0.00607,5.1159,93.9722,127.2398,233.3919,0,U,20402,999,4574,0.0001,-5.6e-07,0,42657.991,1461.369,36538.79,36020.922,PAYLOAD,MEDIUM,JPN,1990-01-01,AFETR,,365302,60508230,0 JCSAT 2,1 20402U 90001B   07045.77988337 -.00000056 +00000-0 +10000-3 0  9992,2 20402 005.1159 093.9722 0060700 127.2398 233.3919 00.98537736045746
2,GENERATED VIA SPACE-TRACK.ORG API,2007-02-20T23:58:09,18 SPCS,JCSAT 2,1990-001B,EARTH,TEME,UTC,SGP4,2007-02-20T20:50:58.517375,0.98539619,0.0060312,5.132,93.8449,127.8095,232.9526,0,U,20402,999,4580,0.0001,-1.96e-06,0,42657.447,1461.341,36536.588,36022.037,PAYLOAD,MEDIUM,JPN,1990-01-01,AFETR,,367004,60564494,0 JCSAT 2,1 20402U 90001B   07051.86873284 -.00000196  00000-0  10000-3 0  9998,2 20402 005.1320 093.8449 0060312 127.8095 232.9526 00.98539619 45808
2,GENERATED VIA SPACE-TRACK.ORG API,2007-02-24T23:54:05,18 SPCS,JCSAT 2,1990-001B,EARTH,TEME,UTC,SGP4,2007-02-24T22:15:33.787296,0.98539037,0.006007,5.1429,93.7536,128.1245,232.5574,0,U,20402,999,4584,0.0001,-2.03e-06,0,42657.615,1461.349,36535.724,36023.236,PAYLOAD,MEDIUM,JPN,1990-01-01,AFETR,,368753,60612515,0 JCSAT 2,1 20402U 90001B   07055.92747439 -.00000203  00000-0  10000-3 0  9990,2 20402 005.1429 093.7536 0060070 128.1245 232.5574 00.98539037 45843
2,GENERATED VIA SPACE-TRACK.ORG API,2007-02-27T08:07:49,18 SPCS,JCSAT 2,1990-001B,EARTH,TEME,UTC,SGP4,2007-02-26T22:58:04.153728,0.98538282,0.0060455,5.1483,93.7164,128.391,232.2902,0,U,20402,999,4586,0.0001,-1.76e-06,0,42657.833,1461.36,36537.586,36021.81,PAYLOAD,MEDIUM,JPN,1990-01-01,AFETR,,369619,60639292,0 JCSAT 2,1 20402U 90001B   07057.95699252 -.00000176  00000-0  10000-3 0  9993,2 20402 005.1483 093.7164 0060455 128.3910 232.2902 00.98538282 45863
2,GENERATED VIA SPACE-TRACK.ORG API,2007-02-28T11:10:40,18 SPCS,JCSAT 2,1990-001B,EARTH,TEME,UTC,SGP4,2007-02-26T22:58:06.326687,0.98538295,0.0060143,5.1482,93.7151,128.4151,232.2749,0,U,20402,999,4586,0.0001,-1.76e-06,0,42657.829,1461.36,36536.251,36023.137,PAYLOAD,MEDIUM,JPN,1990-01-01,AFETR,,370069,60656614,0 JCSAT 2,1 20402U 90001B   07057.95701767 -.00000176 +00000-0 +10000-3 0  9998,2 20402 005.1482 093.7151 0060143 128.4151 232.2749 00.98538295045863
2,GENERATED VIA SPACE-TRACK.ORG API,2007-03-02T08:24:40,18 SPCS,JCSAT 2,1990-001B,EARTH,TEME,UTC,SGP4,2007-03-02T00:02:11.201855,0.98537223,0.0059933,5.1561,93.6511,128.5233,232.2462,0,U,20402,999,4589,0.0001,-1.05e-06,0,42658.139,1461.376,36535.667,36024.341,PAYLOAD,MEDIUM,JPN,1990-01-01,AFETR,,370869,60684123,0 JCSAT 2,1 20402U 90001B   07061.00151854 -.00000105  00000-0  10000-3 0  9997,2 20402 005.1561 093.6511 0059933 128.5233 232.2462 00.98537223 45892
2,GENERATED VIA SPACE-TRACK.ORG API,2007-03-04T11:10:26,18 SPCS,JCSAT 2,1990-001B,EARTH,TEME,UTC,SGP4,2007-03-03T00:23:32.755775,0.98536881,0.0059996,5.1587,93.6296,128.5569,232.2365,0,U,20402,999,4590,0.0001,-7.7e-07,0,42658.237,1461.381,36536.035,36024.17,PAYLOAD,MEDIUM,JPN,1990-01-01,AFETR,,371737,60706331,0 JCSAT 2,1 20402U 90001B   07062.01635134 -.00000077 +00000-0 +10000-3 0  9995,2 20402 005.1587 093.6296 0059996 128.5569 232.2365 00.98536881045904
2,GENERATED VIA SPACE-TRACK.ORG API,2007-03-03T23:54:16,18 SPCS,JCSAT 2,1990-001B,EARTH,TEME,UTC,SGP4,2007-03-04T00:44:53.696256,0.98536567,0.0060067,5.1614,93.6072,128.5805,232.2333,0,U,20402,999,4591,0.0001,-5e-07,0,42658.328,1461.386,36536.429,36023.957,PAYLOAD,MEDIUM,JPN,1990-01-01,AFETR,,371553,60699972,0 JCSAT 2,1 20402U 90001B   07063.03117704 -.00000050  00000-0  10000-3 0  9997,2 20402 005.1614 093.6072 0060067 128.5805 232.2333 00.98536567 45918
2,GENERATED VIA SPACE-TRACK.ORG API,2007-03-06T14:10:51,18 SPCS,JCSAT 2,1990-001B,EARTH,TEME,UTC,SGP4,2007-03-05T01:06:12.670271,0.98536346,0.006006,5.164,93.5845,128.5048,232.3222,0,U,20402,999,4592,0.0001,-2.3e-07,0,42658.392,1461.389,36536.463,36024.05,PAYLOAD,MEDIUM,JPN,1990-01-01,AFETR,,372450,60730824,0 JCSAT 2,1 20402U 90001B   07064.04597998 -.00000023 +00000-0 +10000-3 0  9996,2 20402 005.1640 093.5845 0060060 128.5048 232.3222 00.98536346045920
2,GENERATED VIA SPACE-TRACK.ORG API,2007-03-06T08:09:14,18 SPCS,JCSAT 2,1990-001B,EARTH,TEME,UTC,SGP4,2007-03-06T01:27:29.073024,0.9853614,0.0060124,5.1666,93.5641,128.6143,232.2118,0,U,20402,999,4593,0.0001,0.0,0,42658.451,1461.392,36536.796,36023.837,PAYLOAD,MEDIUM,JPN,1990-01-01,AFETR,,372368,60726854,0 JCSAT 2,1 20402U 90001B   07065.06075316 -.00000000  00000-0  10000-3 0  9999,2 20402 005.1666 093.5641 0060124 128.6143 232.2118 00.98536140 45936
2,GENERATED VIA SPACE-TRACK.ORG API,2007-03-09T11:11:26,18 SPCS,JCSAT 2,1990-001B,EARTH,TEME,UTC,SGP4,2007-03-08T02:09:56.451743,0.98535979,0.0059494,5.1715,93.5199,128.6603,232.1426,0,U,20402,999,4595,0.0001,3.2e-07,0,42658.498,1461.395,36534.155,36026.57,PAYLOAD,MEDIUM,JPN,1990-01-01,AFETR,,373715,60767342,0 JCSAT 2,1 20402U 90001B   07067.09023671 +.00000032 +00000-0 +10000-3 0  9995,2 20402 005.1715 093.5199 0059494 128.6603 232.1426 00.98535979045950
